{
    "CCSDS_OMM_VERS": "3.0",
    "COMMENT": "GENERATED VIA SPACE-TRACK.ORG API",
    "CREATION_DATE": "2025-11-23T21:08:43",
    "ORIGINATOR": "18 SPCS",
    "OBJECT_NAME": "BEIDOU 3 IGSO-2",
    "OBJECT_ID": "2019-035A",
    "CENTER_NAME": "EARTH",
    "REF_FRAME": "TEME",
    "TIME_SYSTEM": "UTC",
    "MEAN_ELEMENT_THEORY": "SGP4",
    "EPOCH": "2025-11-22T22:30:38.731392",
    "MEAN_MOTION": "1.00277615",
    "ECCENTRICITY": "0.00374174",
    "INCLINATION": "55.2208",
    "RA_OF_ASC_NODE": "160.6762",
    "ARG_OF_PERICENTER": "202.0112",
    "MEAN_ANOMALY": "156.6214",
    "EPHEMERIS_TYPE": "0",
    "CLASSIFICATION_TYPE": "U",
    "NORAD_CAT_ID": "44337",
    "ELEMENT_SET_NO": "999",
    "REV_AT_EPOCH": "2359",
    "BSTAR": "0.00000000000000",
    "MEAN_MOTION_DOT": "-0.00000052",
    "MEAN_MOTION_DDOT": "0.0000000000000",
    "SEMIMAJOR_AXIS": "42163.098",
    "PERIOD": "1436.013",
    "APOAPSIS": "35942.726",
    "PERIAPSIS": "35627.199",
    "OBJECT_TYPE": "PAYLOAD",
    "RCS_SIZE": "LARGE",
    "COUNTRY_CODE": "PRC",
    "LAUNCH_DATE": "2019-06-24",
    "SITE": "XSC",
    "DECAY_DATE": null,
    "FILE": "4896238",
    "GP_ID": "303334344",
    "TLE_LINE0": "0 BEIDOU 3 IGSO-2",
    "TLE_LINE1": "1 44337U 19035A   25326.93794828 -.00000052  00000-0  00000-0 0  9995",
    "TLE_LINE2": "2 44337  55.2208 160.6762 0037417 202.0112 156.6214  1.00277615 23596"
}